{"type": "FeatureCollection", "features": [ {"type": "Feature", "properties": {"norad_id": 37292, "name": "COSMOS 2251 DEB", "group": "cosmos-2251-debris", "lat": 45.52666473882767, "lon": -162.73222233365323, "alt_km": 893.2624681348198, "timestamp": "2025-12-21T18:54:58.893182+00:00", "meta": {"OBJECT_NAME": "COSMOS 2251 DEB", "OBJECT_ID": "1993-036BJG", "EPOCH": "2025-12-02T14:04:30.366912", "MEAN_MOTION": 14.03226454, "ECCENTRICITY": 0.02102512, "INCLINATION": 74.129, "RA_OF_ASC_NODE": 67.3453, "ARG_OF_PERICENTER": 73.1105, "MEAN_ANOMALY": 289.2966, "EPHEMERIS_TYPE": 0, "CLASSIFICATION_TYPE": "U", "NORAD_CAT_ID": 37292, "ELEMENT_SET_NO": 999, "REV_AT_EPOCH": 59706, "BSTAR": 0.0022453288, "MEAN_MOTION_DOT": 4.236e-05, "MEAN_MOTION_DDOT": 0}, "tle": {"line1": "1 37292U 93036BJG 25336.58646258  .00004236  00000+0  22453-2 0  9999", "line2": "2 37292  74.1290  67.3453 0210251  73.1105 289.2966 14.03226454597064"}}, "geometry": {"type": "Point", "coordinates": [-162.73222233365323, 45.52666473882767]}}, {"type": "Feature", "properties": {"norad_id": 37295, "name": "COSMOS 2251 DEB", "group": "cosmos-2251-debris", "lat": -70.8842769698716, "lon": 140.02646572344923, "alt_km": 714.0535132950617, "timestamp": "2025-12-21T18:54:58.893192+00:00", "meta": {"OBJECT_NAME": "COSMOS 2251 DEB", "OBJECT_ID": "1993-036BJK", "EPOCH": "2025-12-17T18:42:01.411200", "MEAN_MOTION": 14.6526833, "ECCENTRICITY": 0.00439101, "INCLINATION": 74.007, "RA_OF_ASC_NODE": 271.9083, "ARG_OF_PERICENTER": 89.546, "MEAN_ANOMALY": 271.074, "EPHEMERIS_TYPE": 0, "CLASSIFICATION_TYPE": "U", "NORAD_CAT_ID": 37295, "ELEMENT_SET_NO": 999, "REV_AT_EPOCH": 82378, "BSTAR": 0.00042758939, "MEAN_MOTION_DOT": 2.307e-05, "MEAN_MOTION_DDOT": 0}, "tle": {"line1": "1 37295U 93036BJK 25351.77918300  .00002307  00000+0  42759-3 0  9999", "line2": "2 37295  74.0070 271.9083 0043910  89.5460 271.0740 14.65268330823782"}}, "geometry": {"type": "Point", "coordinates": [140.02646572344923, -70.8842769698716]}}, {"type": "Feature", "properties": {"norad_id": 37305, "name": "COSMOS 2251 DEB", "group": "cosmos-2251-debris", "lat": 6.126342997148806, "lon": 91.95155334841698, "alt_km": 754.6297887447727, "timestamp": "2025-12-21T18:54:58.893202+00:00", "meta": {"OBJECT_NAME": "COSMOS 2251 DEB", "OBJECT_ID": "1993-036BJV", "EPOCH": "2025-12-21T01:23:20.082048", "MEAN_MOTION": 14.36162637, "ECCENTRICITY": 0.00496491, "INCLINATION": 73.8709, "RA_OF_ASC_NODE": 275.0855, "ARG_OF_PERICENTER": 234.1491, "MEAN_ANOMALY": 125.5045, "EPHEMERIS_TYPE": 0, "CLASSIFICATION_TYPE": "U", "NORAD_CAT_ID": 37305, "ELEMENT_SET_NO": 999, "REV_AT_EPOCH": 66986, "BSTAR": 0.00038407162, "MEAN_MOTION_DOT": 1.108e-05, "MEAN_MOTION_DDOT": 0}, "tle": {"line1": "1 37305U 93036BJV 25355.05787132  .00001108  00000+0  38407-3 0  9996", "line2": "2 37305  73.8709 275.0855 0049649 234.1491 125.5045 14.36162637669868"}}, "geometry": {"type": "Point", "coordinates": [91.95155334841698, 6.126342997148806]}}, {"type": "Feature", "properties": {"norad_id": 37312, "name": "COSMOS 2251 DEB", "group": "cosmos-2251-debris", "lat": -1.1941918257026913, "lon": 7.633192847162097, "alt_km": 745.1314288295571, "timestamp": "2025-12-21T18:54:58.893212+00:00", "meta": {"OBJECT_NAME": "COSMOS 2251 DEB", "OBJECT_ID": "1993-036BKC", "EPOCH": "2025-12-20T18:50:10.277088", "MEAN_MOTION": 14.46148275, "ECCENTRICITY": 0.00184835, "INCLINATION": 74.0302, "RA_OF_ASC_NODE": 189.1635, "ARG_OF_PERICENTER": 291.522, "MEAN_ANOMALY": 68.3967, "EPHEMERIS_TYPE": 0, "CLASSIFICATION_TYPE": "U", "NORAD_CAT_ID": 37312, "ELEMENT_SET_NO": 999, "REV_AT_EPOCH": 86280, "BSTAR": 0.00027670077, "MEAN_MOTION_DOT": 9.64e-06, "MEAN_MOTION_DDOT": 0}, "tle": {"line1": "1 37312U 93036BKC 25354.78484117  .00000964  00000+0  27670-3 0  9999", "line2": "2 37312  74.0302 189.1635 0018483 291.5220  68.3967 14.46148275862807"}}, "geometry": {"type": "Point", "coordinates": [7.633192847162097, -1.1941918257026913]}}, {"type": "Feature", "properties": {"norad_id": 37316, "name": "COSMOS 2251 DEB", "group": "cosmos-2251-debris", "lat": 19.31309518522271, "lon": 177.0489252485225, "alt_km": 583.550689480875, "timestamp": "2025-12-21T18:54:58.893222+00:00", "meta": {"OBJECT_NAME": "COSMOS 2251 DEB", "OBJECT_ID": "1993-036BKG", "EPOCH": "2025-12-21T00:32:18.112704", "MEAN_MOTION": 14.94800136, "ECCENTRICITY": 0.00294788, "INCLINATION": 74.019, "RA_OF_ASC_NODE": 4.3577, "ARG_OF_PERICENTER": 69.2164, "MEAN_ANOMALY": 291.2174, "EPHEMERIS_TYPE": 0, "CLASSIFICATION_TYPE": "U", "NORAD_CAT_ID": 37316, "ELEMENT_SET_NO": 999, "REV_AT_EPOCH": 86267, "BSTAR": 0.0012897254, "MEAN_MOTION_DOT": 0.00014145, "MEAN_MOTION_DDOT": 0}, "tle": {"line1": "1 37316U 93036BKG 25355.02243186  .00014145  00000+0  12897-2 0  9990", "line2": "2 37316  74.0190   4.3577 0029478  69.2164 291.2174 14.94800136862678"}}, "geometry": {"type": "Point", "coordinates": [177.0489252485225, 19.31309518522271]}}, {"type": "Feature", "properties": {"norad_id": 37320, "name": "COSMOS 2251 DEB", "group": "cosmos-2251-debris", "lat": 39.8542702548646, "lon": 6.566998637574863, "alt_km": 657.1250638611991, "timestamp": "2025-12-21T18:54:58.893231+00:00", "meta": {"OBJECT_NAME": "COSMOS 2251 DEB", "OBJECT_ID": "1993-036BKL", "EPOCH": "2025-12-19T20:49:51.953088", "MEAN_MOTION": 14.78856543, "ECCENTRICITY": 0.00469093, "INCLINATION": 74.0446, "RA_OF_ASC_NODE": 204.1562, "ARG_OF_PERICENTER": 289.7671, "MEAN_ANOMALY": 69.8449, "EPHEMERIS_TYPE": 0, "CLASSIFICATION_TYPE": "U", "NORAD_CAT_ID": 37320, "ELEMENT_SET_NO": 999, "REV_AT_EPOCH": 66252, "BSTAR": 0.00051289365, "MEAN_MOTION_DOT": 3.813e-05, "MEAN_MOTION_DDOT": 0}, "tle": {"line1": "1 37320U 93036BKL 25353.86796242  .00003813  00000+0  51289-3 0  9990", "line2": "2 37320  74.0446 204.1562 0046909 289.7671  69.8449 14.78856543662522"}}, "geometry": {"type": "Point", "coordinates": [6.566998637574863, 39.8542702548646]}}, {"type": "Feature", "properties": {"norad_id": 37326, "name": "COSMOS 2251 DEB", "group": "cosmos-2251-debris", "lat": 34.12844644142475, "lon": 126.1772291177684, "alt_km": 666.1531447273774, "timestamp": "2025-12-21T18:54:58.893241+00:00", "meta": {"OBJECT_NAME": "COSMOS 2251 DEB", "OBJECT_ID": "1993-036BKS", "EPOCH": "2025-12-18T14:41:59.918784", "MEAN_MOTION": 14.6160351, "ECCENTRICITY": 0.00547059, "INCLINATION": 74.0257, "RA_OF_ASC_NODE": 323.4491, "ARG_OF_PERICENTER": 90.7075, "MEAN_ANOMALY": 270.0361, "EPHEMERIS_TYPE": 0, "CLASSIFICATION_TYPE": "U", "NORAD_CAT_ID": 37326, "ELEMENT_SET_NO": 999, "REV_AT_EPOCH": 85569, "BSTAR": 0.00040097011, "MEAN_MOTION_DOT": 2.005e-05, "MEAN_MOTION_DDOT": 0}, "tle": {"line1": "1 37326U 93036BKS 25352.61249906  .00002005  00000+0  40097-3 0  9995", "line2": "2 37326  74.0257 323.4491 0054705  90.7075 270.0361 14.61603510855692"}}, "geometry": {"type": "Point", "coordinates": [126.1772291177684, 34.12844644142475]}}, {"type": "Feature", "properties": {"norad_id": 37330, "name": "COSMOS 2251 DEB", "group": "cosmos-2251-debris", "lat": 66.98985600493062, "lon": -39.746070025720705, "alt_km": 662.0281892943958, "timestamp": "2025-12-21T18:54:58.893251+00:00", "meta": {"OBJECT_NAME": "COSMOS 2251 DEB", "OBJECT_ID": "1993-036BKW", "EPOCH": "2025-12-20T12:58:19.659648", "MEAN_MOTION": 14.5955958, "ECCENTRICITY": 0.0056796, "INCLINATION": 74.0188, "RA_OF_ASC_NODE": 280.1955, "ARG_OF_PERICENTER": 126.4731, "MEAN_ANOMALY": 234.1688, "EPHEMERIS_TYPE": 0, "CLASSIFICATION_TYPE": "U", "NORAD_CAT_ID": 37330, "ELEMENT_SET_NO": 999, "REV_AT_EPOCH": 86482, "BSTAR": 0.000194, "MEAN_MOTION_DOT": 9.12e-06, "MEAN_MOTION_DDOT": 0}, "tle": {"line1": "1 37330U 93036BKW 25354.54050532  .00000912  00000+0  19400-3 0  9998", "line2": "2 37330  74.0188 280.1955 0056796 126.4731 234.1688 14.59559580864824"}}, "geometry": {"type": "Point", "coordinates": [-39.746070025720705, 66.98985600493062]}}, {"type": "Feature", "properties": {"norad_id": 37331, "name": "COSMOS 2251 DEB", "group": "cosmos-2251-debris", "lat": 57.34633184262422, "lon": -155.13506817405315, "alt_km": 746.7942118405854, "timestamp": "2025-12-21T18:54:58.893260+00:00", "meta": {"OBJECT_NAME": "COSMOS 2251 DEB", "OBJECT_ID": "1993-036BKX", "EPOCH": "2025-12-20T20:37:09.916320", "MEAN_MOTION": 14.35041344, "ECCENTRICITY": 0.0055285, "INCLINATION": 74.0747, "RA_OF_ASC_NODE": 53.0207, "ARG_OF_PERICENTER": 64.7623, "MEAN_ANOMALY": 295.9246, "EPHEMERIS_TYPE": 0, "CLASSIFICATION_TYPE": "U", "NORAD_CAT_ID": 37331, "ELEMENT_SET_NO": 999, "REV_AT_EPOCH": 84876, "BSTAR": 0.00030498, "MEAN_MOTION_DOT": 8.59e-06, "MEAN_MOTION_DDOT": 0}, "tle": {"line1": "1 37331U 93036BKX 25354.85914255  .00000859  00000+0  30498-3 0  9994", "line2": "2 37331  74.0747  53.0207 0055285  64.7623 295.9246 14.35041344848767"}}, "geometry": {"type": "Point", "coordinates": [-155.13506817405315, 57.34633184262422]}}, {"type": "Feature", "properties": {"norad_id": 37336, "name": "COSMOS 2251 DEB", "group": "cosmos-2251-debris", "lat": 23.696411401754283, "lon": -38.08823816204751, "alt_km": 760.9197560193361, "timestamp": "2025-12-21T18:54:58.893270+00:00", "meta": {"OBJECT_NAME": "COSMOS 2251 DEB", "OBJECT_ID": "1993-036BLC", "EPOCH": "2025-12-17T07:33:13.175712", "MEAN_MOTION": 14.32760586, "ECCENTRICITY": 0.00290162, "INCLINATION": 74.0414, "RA_OF_ASC_NODE": 322.8603, "ARG_OF_PERICENTER": 39.1846, "MEAN_ANOMALY": 321.1399, "EPHEMERIS_TYPE": 0, "CLASSIFICATION_TYPE": "U", "NORAD_CAT_ID": 37336, "ELEMENT_SET_NO": 999, "REV_AT_EPOCH": 65185, "BSTAR": 6.9199726e-05, "MEAN_MOTION_DOT": 1.63e-06, "MEAN_MOTION_DDOT": 0}, "tle": {"line1": "1 37336U 93036BLC 25351.31473583  .00000163  00000+0  69200-4 0  9993", "line2": "2 37336  74.0414 322.8603 0029016  39.1846 321.1399 14.32760586651852"}}, "geometry": {"type": "Point", "coordinates": [-38.08823816204751, 23.696411401754283]}}]}